NORAD_CAT_ID,OBJECT_NAME,OBJECT_TYPE,EPOCH,MEAN_MOTION,ECCENTRICITY,INCLINATION,RA_OF_ASC_NODE,ARG_OF_PERICENTER,MEAN_ANOMALY,BSTAR,MEAN_MOTION_DOT,MEAN_MOTION_DDOT,TLE_LINE0,TLE_LINE1,TLE_LINE2,SEMIMAJOR_AXIS,PERIOD,APOGEE,PERIGEE,DECAYED
52088.0,STARLINK-3537,PAYLOAD,2022-09-15 14:00:01,15.766925199999998,0.0002191999999999,53.2022,321.1158,23.0754,13.2947,0.00048518,0.00079369,0.0,0 STARLINK-3537,1 52088U 22029A   22258.58334491  .00079369  00000-0  48518-3 0  9997,2 52088  53.2022 321.1158 0002192  23.0754  13.2947 15.76692520  1308,6717.956,91.33,341.2940000000001,338.349,0.0
52088.0,STARLINK-3537,PAYLOAD,2022-09-15 16:00:00,15.76717355,0.0002210999999999,53.2019,320.7011,21.753,127.8999,0.00024508,0.00039623,0.0,0 STARLINK-3537,1 52088U 22029A   22258.66667824  .00039623  00000-0  24508-3 0  9997,2 52088  53.2019 320.7011 0002211  21.7530 127.8999 15.76717355  1309,6717.886,91.329,341.236,338.265,0.0
52088.0,STARLINK-3537,PAYLOAD,2022-09-16 11:08:42,15.76673545,0.0001646,53.2023,316.7348,20.3556,339.7531,-1.7671e-05,-3.538e-05,0.0,0 STARLINK-3537,1 52088U 22029A   22259.46438610 -.00003538  00000-0 -17671-4 0  9997,2 52088  53.2023 316.7348 0001646  20.3556 339.7531 15.76673545 29933,6718.01,91.332,340.981,338.769,0.0
52088.0,STARLINK-3537,PAYLOAD,2022-09-17 09:57:50,15.76759148,0.000394,53.2022,311.9985,14.6306,345.4829,0.00010554,0.00016677,0.0,0 STARLINK-3537,1 52088U 22029A   22260.41516584  .00016677  00000-0  10554-3 0  9999,2 52088  53.2022 311.9985 0003940  14.6306 345.4829 15.76759148 30080,6717.767,91.327,342.279,336.985,0.0
52088.0,STARLINK-3537,PAYLOAD,2022-09-17 20:36:44,15.76772317,0.000215,53.2028,309.7915,25.1152,334.9974,0.00010501,0.00016597,0.0,0 STARLINK-3537,1 52088U 22029A   22260.85885189  .00016597  00000-0  10501-3 0  9990,2 52088  53.2028 309.7915 0002150  25.1152 334.9974 15.76772317 30157,6717.73,91.326,341.039,338.15,0.0
52088.0,STARLINK-3537,PAYLOAD,2022-09-18 10:18:14,15.76719868,0.0002165999999999,53.2027,306.9528,29.5723,330.542,3.5658e-05,5.181e-05,0.0,0 STARLINK-3537,1 52088U 22029A   22261.42933547  .00005181  00000-0  35658-4 0  9994,2 52088  53.2027 306.9528 0002166  29.5723 330.5420 15.76719868 30244,6717.879,91.329,341.199,338.288,0.0
52088.0,STARLINK-3537,PAYLOAD,2022-09-18 13:20:47,15.76728896,0.0002304,53.2026,306.3219,27.2023,332.9119,2.6728e-05,3.72e-05,0.0,0 STARLINK-3537,1 52088U 22029A   22261.55610201  .00003720  00000-0  26728-4 0  9992,2 52088  53.2026 306.3219 0002304  27.2023 332.9119 15.76728896 30260,6717.853,91.328,341.266,338.17,0.0
52088.0,STARLINK-3537,PAYLOAD,2022-09-19 03:02:13,15.76766861,0.0001273,53.2038,303.4819,96.2205,263.8961,9.72e-07,-4.95e-06,0.0,0 STARLINK-3537,1 52088U 22029A   22262.12654447 -.00000495  00000-0  97200-6 0  9998,2 52088  53.2038 303.4819 0001273  96.2205 263.8961 15.76766861 30350,6717.745,91.326,340.465,338.755,0.0
52088.0,STARLINK-3537,PAYLOAD,2022-09-19 09:07:21,15.76715471,0.0001785,53.2032,302.2221,53.6105,306.5081,-7.1013e-05,-0.00012254,0.0,0 STARLINK-3537,1 52088U 22029A   22262.38011104 -.00012254  00000-0 -71013-4 0  9992,2 52088  53.2032 302.2221 0001785  53.6105 306.5081 15.76715471 30395,6717.891,91.329,340.955,338.557,0.0
52088.0,STARLINK-3537,PAYLOAD,2022-09-19 10:38:38,15.76709756,0.0001954,53.2027,301.9055,41.9019,318.2151,-7.63e-05,-0.00013114,0.0,0 STARLINK-3537,1 52088U 22029A   22262.44349945 -.00013114  00000-0 -76300-4 0  9996,2 52088  53.2027 301.9055 0001954  41.9019 318.2151 15.76709756 30401,6717.906999999997,91.329,341.085,338.46,0.0
52088.0,STARLINK-3537,PAYLOAD,2022-09-19 19:46:17,15.76707176,0.0003096,53.2028,300.0134,26.2707,333.8471,-8.3765e-05,-0.00014334,0.0,0 STARLINK-3537,1 52088U 22029A   22262.82381873 -.00014334  00000-0 -83765-4 0  9992,2 52088  53.2028 300.0134 0003096  26.2707 333.8471 15.76707176 30467,6717.915,91.33,341.8590000000001,337.7,0.0
52088.0,STARLINK-3537,PAYLOAD,2022-09-20 03:22:40,15.76710374,0.0002049,53.2021,298.436,31.9214,328.1931,-3.8295e-05,-6.913e-05,0.0,0 STARLINK-3537,1 52088U 22029A   22263.14074436 -.00006913  00000-0 -38295-4 0  9994,2 52088  53.2021 298.4360 0002049  31.9214 328.1931 15.76710374 30512,6717.906,91.329,341.147,338.394,0.0
52088.0,STARLINK-3537,PAYLOAD,2022-09-20 09:27:46,15.76721258,0.0002427,53.203,297.176,23.1083,337.0047,-5.2922e-08,-6.65e-06,0.0,0 STARLINK-3537,1 52088U 22029A   22263.39428778 -.00000665  00000-0 -52922-7 0  9997,2 52088  53.2030 297.1760 0002427  23.1083 337.0047 15.76721258 30553,6717.875,91.329,341.37,338.1090000000001,0.0
52088.0,STARLINK-3537,PAYLOAD,2022-09-20 12:30:19,15.7672079,0.00027,53.202,296.5437,27.0945,333.0216,3.5114e-05,5.092e-05,0.0,0 STARLINK-3537,1 52088U 22029A   22263.52106275  .00005092  00000-0  35114-4 0  9995,2 52088  53.2020 296.5437 0002700  27.0945 333.0216 15.76720790 30576,6717.876,91.329,341.555,337.927,0.0
52088.0,STARLINK-3537,PAYLOAD,2022-09-21 03:43:04,15.76746053,0.0002328,53.2024,293.3897,27.0711,333.0432,8.2375e-05,0.00012857,0.0,0 STARLINK-3537,1 52088U 22029A   22264.15491237  .00012857  00000-0  82375-4 0  9998,2 52088  53.2024 293.3897 0002328  27.0711 333.0432 15.76746053 30673,6717.804,91.327,341.233,338.105,0.0
52088.0,STARLINK-3537,PAYLOAD,2022-09-21 11:19:27,15.76730775,0.0003028,53.202,291.8131,29.6488,330.4705,4.8772e-05,7.333e-05,0.0,0 STARLINK-3537,1 52088U 22029A   22264.47184874  .00007333  00000-0  48772-4 0  9995,2 52088  53.2020 291.8131 0003028  29.6488 330.4705 15.76730775 30724,6717.848000000001,91.328,341.747,337.67800000000005,0.0
52088.0,STARLINK-3537,PAYLOAD,2022-09-22 02:32:11,15.76759883,0.0001825,53.2015,288.6568,33.1662,326.9473,6.1751e-05,9.476e-05,0.0,0 STARLINK-3537,1 52088U 22029A   22265.10569025  .00009476  00000-0  61751-4 0  9993,2 52088  53.2015 288.6568 0001825  33.1662 326.9473 15.76759883 30827,6717.765,91.327,340.856,338.404,0.0
52088.0,STARLINK-3537,PAYLOAD,2022-09-22 08:37:17,15.7676649,0.0002165,53.2019,287.3983,23.5311,336.5809,6.0773e-05,9.318e-05,0.0,0 STARLINK-3537,1 52088U 22029A   22265.35922743  .00009318  00000-0  60773-4 0  9998,2 52088  53.2019 287.3983 0002165  23.5311 336.5809 15.76766490 30866,6717.746,91.326,341.066,338.157,0.0
52088.0,STARLINK-3537,PAYLOAD,2022-09-22 20:47:30,15.76735787,0.0002477,53.201,284.8744,26.943,333.172,-9.4965e-06,-2.211e-05,0.0,0 STARLINK-3537,1 52088U 22029A   22265.86631968 -.00002211  00000-0 -94965-5 0  9998,2 52088  53.2010 284.8744 0002477  26.9430 333.1720 15.76735787 30948,6717.833000000001,91.328,341.362,338.034,0.0
52088.0,STARLINK-3537,PAYLOAD,2022-09-23 02:52:38,15.76681472,0.000329,53.2007,283.6104,28.9828,331.1375,-9.781e-05,-0.00016606,0.0,0 STARLINK-3537,1 52088U 22029A   22266.11988637 -.00016606  00000-0 -97810-4 0  9999,2 52088  53.2007 283.6104 0003290  28.9828 331.1375 15.76681472 30987,6717.988,91.331,342.0630000000001,337.642,0.0
52088.0,STARLINK-3537,PAYLOAD,2022-09-23 07:26:27,15.76677586,0.0002186999999999,53.2012,282.6631,36.1313,323.9856,-0.00010513,-0.00017788,0.0,0 STARLINK-3537,1 52088U 22029A   22266.31004405 -.00017788  00000-0 -10513-3 0  9999,2 52088  53.2012 282.6631 0002187  36.1313 323.9856 15.76677586 31010,6717.999,91.331,341.333,338.394,0.0
52088.0,STARLINK-3537,PAYLOAD,2022-09-23 22:39:11,15.76785057,0.0001953,53.2007,279.5096,40.0874,320.0292,0.00017461,0.00028087,0.0,0 STARLINK-3537,1 52088U 22029A   22266.94387902  .00028087  00000-0  17461-3 0  9995,2 52088  53.2007 279.5096 0001953  40.0874 320.0292 15.76785057 31116,6717.693,91.325,340.87,338.246,0.0
52088.0,STARLINK-3537,PAYLOAD,2022-09-24 10:49:24,15.7672777,0.0002449,53.2015,276.9895,43.6996,316.4219,4.6813e-05,7.012e-05,0.0,0 STARLINK-3537,1 52088U 22029A   22267.45097793  .00007012  00000-0  46813-4 0  9997,2 52088  53.2015 276.9895 0002449  43.6996 316.4219 15.76727770 31192,6717.856,91.328,341.366,338.076,0.0
52088.0,STARLINK-3537,PAYLOAD,2022-09-24 12:20:41,15.76734498,0.0004774,53.2013,276.6704,39.7257,320.4113,8.0088e-05,0.00012477,0.0,0 STARLINK-3537,1 52088U 22029A   22267.51436895  .00012477  00000-0  80088-4 0  9997,2 52088  53.2013 276.6704 0004774  39.7257 320.4113 15.76734498 31200,6717.837,91.328,342.909,336.495,0.0
52088.0,STARLINK-3537,PAYLOAD,2022-09-25 03:33:23,15.76793081,0.0002476,53.2011,273.5157,33.8327,326.2852,8.225100000000001e-05,0.00012864,0.0,0 STARLINK-3537,1 52088U 22029A   22268.14818554  .00012864  00000-0  82251-4 0  9997,2 52088  53.2011 273.5157 0002476  33.8327 326.2852 15.76793081 31304,6717.670999999999,91.325,341.199,337.872,0.0
52088.0,STARLINK-3537,PAYLOAD,2022-09-25 11:09:46,15.7673958,0.0002904999999999,53.2008,271.9386,37.3535,322.7688,-8.702200000000001e-05,-0.00014885,0.0,0 STARLINK-3537,1 52088U 22029A   22268.46512067 -.00014885  00000-0 -87022-4 0  9990,2 52088  53.2008 271.9386 0002905  37.3535 322.7688 15.76739580 31350,6717.823,91.328,341.639,337.736,0.0
52088.0,STARLINK-3537,PAYLOAD,2022-09-25 20:17:24,15.76753634,0.0002771,53.2005,270.0448,33.1646,326.9549,-3.1727e-05,-5.853e-05,0.0,0 STARLINK-3537,1 52088U 22029A   22268.84542358 -.00005853  00000-0 -31727-4 0  9994,2 52088  53.2005 270.0448 0002771  33.1646 326.9549 15.76753634 31419,6717.783,91.327,341.509,337.786,0.0
52088.0,STARLINK-3537,PAYLOAD,2022-09-26 05:25:03,15.7675808,0.000363,53.2012,268.1544,15.833,344.2804,-5.5984000000000005e-06,-1.577e-05,0.0,0 STARLINK-3537,1 52088U 22029A   22269.22573305 -.00001577  00000-0 -55984-5 0  9994,2 52088  53.2012 268.1544 0003630  15.8330 344.2804 15.76758080 31477,6717.77,91.327,342.074,337.196,0.0
52088.0,STARLINK-3537,PAYLOAD,2022-09-26 06:56:20,15.76723231,0.0001851,53.2009,267.8383,42.0111,318.1052,-0.00012419,-0.00020926,0.0,0 STARLINK-3537,1 52088U 22029A   22269.28912087 -.00020926  00000-0 -12419-3 0  9997,2 52088  53.2009 267.8383 0001851  42.0111 318.1052 15.76723231 31488,6717.869000000002,91.329,340.977,338.491,0.0
